start=new Date('2023-04-04T00:00:00.000Z').valueOf();
sats=[{"ELEMENT_SET_NO":"999","PERIAPSIS":"538.753","MEAN_MOTION_DDOT":"0.0000000000000","SITE":"AFETR","REF_FRAME":"TEME","CENTER_NAME":"EARTH","OBJECT_TYPE":"PAYLOAD","TLE_LINE2":"2 51998  53.2150 146.2560 0001381  82.8046 277.3103 15.08852194 60771","SEMIMAJOR_AXIS":"6917.843","INCLINATION":"53.2150","REV_AT_EPOCH":"6077","ECCENTRICITY":"0.00013810","COUNTRY_CODE":"US","TIME_SYSTEM":"UTC","BSTAR":"0.00025875000000","RA_OF_ASC_NODE":"146.2560","OBJECT_ID":"2022-025AU","MEAN_ELEMENT_THEORY":"SGP4","TLE_LINE1":"1 51998U 22025AU  23093.86112594  .00003834  00000-0  25875-3 0  9994","OBJECT_NAME":"STARLINK-3618","LAUNCH_DATE":"2022-03-09","MEAN_ANOMALY":"277.3103","PERIOD":"95.437","CLASSIFICATION_TYPE":"U","DECAY_DATE":null,"EPHEMERIS_TYPE":"0","MEAN_MOTION":"15.08852194","APOAPSIS":"540.663","RCS_SIZE":"MEDIUM","MEAN_MOTION_DOT":"0.00003834","EPOCH":"2023-04-03T20:40:01.281216","ARG_OF_PERICENTER":"82.8046","FILE":"3879095","GP_ID":"229396248","NORAD_CAT_ID":"51998"},{"REV_AT_EPOCH":"5922","INCLINATION":"53.2157","ECCENTRICITY":"0.00016020","COUNTRY_CODE":"US","BSTAR":"0.00069213000000","TIME_SYSTEM":"UTC","PERIAPSIS":"538.576","ELEMENT_SET_NO":"999","REF_FRAME":"TEME","SITE":"AFETR","MEAN_MOTION_DDOT":"0.0000000000000","SEMIMAJOR_AXIS":"6917.819","TLE_LINE2":"2 51999  53.2157 147.3171 0001602  90.7898 269.3278 15.08859991 59222","OBJECT_TYPE":"PAYLOAD","CENTER_NAME":"EARTH","RCS_SIZE":"LARGE","GP_ID":"229425501","FILE":"3879321","ARG_OF_PERICENTER":"90.7898","EPOCH":"2023-04-03T14:55:34.329504","MEAN_MOTION_DOT":"0.00010750","NORAD_CAT_ID":"51999","MEAN_ELEMENT_THEORY":"SGP4","OBJECT_ID":"2022-025AV","RA_OF_ASC_NODE":"147.3171","LAUNCH_DATE":"2022-03-09","MEAN_ANOMALY":"269.3278","OBJECT_NAME":"STARLINK-3667","TLE_LINE1":"1 51999U 22025AV  23093.62192511  .00010750  00000-0  69213-3 0  9995","CLASSIFICATION_TYPE":"U","PERIOD":"95.436","APOAPSIS":"540.793","EPHEMERIS_TYPE":"0","MEAN_MOTION":"15.08859991","DECAY_DATE":null},{"CENTER_NAME":"EARTH","TLE_LINE2":"2 52000  53.2143 146.2368 0000772 109.2517 250.8559 15.08848032 59263","OBJECT_TYPE":"PAYLOAD","SEMIMAJOR_AXIS":"6917.856","ELEMENT_SET_NO":"999","PERIAPSIS":"539.187","MEAN_MOTION_DDOT":"0.0000000000000","SITE":"AFETR","REF_FRAME":"TEME","COUNTRY_CODE":"US","TIME_SYSTEM":"UTC","BSTAR":"0.00074659000000","INCLINATION":"53.2143","REV_AT_EPOCH":"5926","ECCENTRICITY":"0.00007720","PERIOD":"95.437","CLASSIFICATION_TYPE":"U","DECAY_DATE":null,"MEAN_MOTION":"15.08848032","EPHEMERIS_TYPE":"0","APOAPSIS":"540.255","RA_OF_ASC_NODE":"146.2368","OBJECT_ID":"2022-025AW","MEAN_ELEMENT_THEORY":"SGP4","TLE_LINE1":"1 52000U 22025AW  23093.84640213  .00011617  00000-0  74659-3 0  9993","OBJECT_NAME":"STARLINK-3653","MEAN_ANOMALY":"250.8559","LAUNCH_DATE":"2022-03-09","NORAD_CAT_ID":"52000","RCS_SIZE":"LARGE","MEAN_MOTION_DOT":"0.00011617","EPOCH":"2023-04-03T20:18:49.144032","FILE":"3879321","ARG_OF_PERICENTER":"109.2517","GP_ID":"229425245"},{"SEMIMAJOR_AXIS":"6917.837","TLE_LINE2":"2 52001  53.2139 146.2736 0000791 215.5145 144.5795 15.08854311 60795","OBJECT_TYPE":"PAYLOAD","CENTER_NAME":"EARTH","REF_FRAME":"TEME","MEAN_MOTION_DDOT":"0.0000000000000","SITE":"AFETR","PERIAPSIS":"539.154","ELEMENT_SET_NO":"999","BSTAR":"0.00118780000000","TIME_SYSTEM":"UTC","COUNTRY_CODE":"US","ECCENTRICITY":"0.00007910","REV_AT_EPOCH":"6079","INCLINATION":"53.2139","MEAN_MOTION":"15.08854311","EPHEMERIS_TYPE":"0","APOAPSIS":"540.249","DECAY_DATE":null,"PERIOD":"95.437","CLASSIFICATION_TYPE":"U","LAUNCH_DATE":"2022-03-09","MEAN_ANOMALY":"144.5795","TLE_LINE1":"1 52001U 22025AX  23093.85744448  .00018674  00000-0  11878-2 0  9993","OBJECT_NAME":"STARLINK-3659","MEAN_ELEMENT_THEORY":"SGP4","RA_OF_ASC_NODE":"146.2736","OBJECT_ID":"2022-025AX","NORAD_CAT_ID":"52001","ARG_OF_PERICENTER":"215.5145","FILE":"3879096","GP_ID":"229396263","MEAN_MOTION_DOT":"0.00018674","EPOCH":"2023-04-03T20:34:43.203072","RCS_SIZE":"LARGE"},{"REV_AT_EPOCH":"5921","INCLINATION":"53.2158","ECCENTRICITY":"0.00013460","COUNTRY_CODE":"US","BSTAR":"0.00072747000000","TIME_SYSTEM":"UTC","PERIAPSIS":"538.762","ELEMENT_SET_NO":"999","REF_FRAME":"TEME","MEAN_MOTION_DDOT":"0.0000000000000","SITE":"AFETR","TLE_LINE2":"2 52002  53.2158 147.7778 0001346 103.9705 256.1437 15.08857004 59218","OBJECT_TYPE":"PAYLOAD","SEMIMAJOR_AXIS":"6917.828","CENTER_NAME":"EARTH","RCS_SIZE":"LARGE","FILE":"3879059","ARG_OF_PERICENTER":"103.9705","GP_ID":"229392858","MEAN_MOTION_DOT":"0.00011314","EPOCH":"2023-04-03T12:32:30.859296","NORAD_CAT_ID":"52002","MEAN_ELEMENT_THEORY":"SGP4","RA_OF_ASC_NODE":"147.7778","OBJECT_ID":"2022-025AY","MEAN_ANOMALY":"256.1437","LAUNCH_DATE":"2022-03-09","TLE_LINE1":"1 52002U 22025AY  23093.52257939  .00011314  00000-0  72747-3 0  9999","OBJECT_NAME":"STARLINK-3668","CLASSIFICATION_TYPE":"U","PERIOD":"95.436","EPHEMERIS_TYPE":"0","MEAN_MOTION":"15.08857004","APOAPSIS":"540.625","DECAY_DATE":null},{"RCS_SIZE":"LARGE","MEAN_MOTION_DOT":"0.00008755","EPOCH":"2023-04-03T20:24:07.807968","ARG_OF_PERICENTER":"105.1855","FILE":"3879321","GP_ID":"229425001","NORAD_CAT_ID":"52003","RA_OF_ASC_NODE":"146.3067","OBJECT_ID":"2022-025AZ","MEAN_ELEMENT_THEORY":"SGP4","TLE_LINE1":"1 52003U 22025AZ  23093.85009037  .00008755  00000-0  56731-3 0  9990","OBJECT_NAME":"STARLINK-3654","LAUNCH_DATE":"2022-03-09","MEAN_ANOMALY":"254.9293","PERIOD":"95.437","CLASSIFICATION_TYPE":"U","DECAY_DATE":null,"MEAN_MOTION":"15.08851489","EPHEMERIS_TYPE":"0","APOAPSIS":"540.682","INCLINATION":"53.2152","REV_AT_EPOCH":"5926","ECCENTRICITY":"0.00014050","COUNTRY_CODE":"US","TIME_SYSTEM":"UTC","BSTAR":"0.00056731000000","ELEMENT_SET_NO":"999","PERIAPSIS":"538.738","MEAN_MOTION_DDOT":"0.0000000000000","SITE":"AFETR","REF_FRAME":"TEME","CENTER_NAME":"EARTH","TLE_LINE2":"2 52003  53.2152 146.3067 0001405 105.1855 254.9293 15.08851489 59267","SEMIMAJOR_AXIS":"6917.845","OBJECT_TYPE":"PAYLOAD"},{"RCS_SIZE":"LARGE","GP_ID":"229392864","FILE":"3879059","ARG_OF_PERICENTER":"90.7205","EPOCH":"2023-04-03T08:44:34.601568","MEAN_MOTION_DOT":"0.00005774","NORAD_CAT_ID":"52088","MEAN_ELEMENT_THEORY":"SGP4","OBJECT_ID":"2022-029A","RA_OF_ASC_NODE":"108.2176","LAUNCH_DATE":"2022-03-19","MEAN_ANOMALY":"269.3950","OBJECT_NAME":"STARLINK-3537","TLE_LINE1":"1 52088U 22029A   23093.36428937  .00005774  00000-0  38043-3 0  9991","CLASSIFICATION_TYPE":"U","PERIOD":"95.437","APOAPSIS":"540.681","EPHEMERIS_TYPE":"0","MEAN_MOTION":"15.08855592","DECAY_DATE":null,"REV_AT_EPOCH":"6046","INCLINATION":"53.2172","ECCENTRICITY":"0.00014210","COUNTRY_CODE":"US","BSTAR":"0.00038043000000","TIME_SYSTEM":"UTC","PERIAPSIS":"538.715","ELEMENT_SET_NO":"999","REF_FRAME":"TEME","SITE":"AFETR","MEAN_MOTION_DDOT":"0.0000000000000","SEMIMAJOR_AXIS":"6917.833","TLE_LINE2":"2 52088  53.2172 108.2176 0001421  90.7205 269.3950 15.08855592 60469","OBJECT_TYPE":"PAYLOAD","CENTER_NAME":"EARTH"},{"MEAN_ELEMENT_THEORY":"SGP4","RA_OF_ASC_NODE":"218.6645","OBJECT_ID":"2022-029B","MEAN_ANOMALY":"282.7240","LAUNCH_DATE":"2022-03-19","TLE_LINE1":"1 52089U 22029B   23093.32476977 -.00001996  00000-0 -10736-3 0  9998","OBJECT_NAME":"STARLINK-3722","PERIOD":"95.438","CLASSIFICATION_TYPE":"U","MEAN_MOTION":"15.08837275","EPHEMERIS_TYPE":"0","APOAPSIS":"540.908","DECAY_DATE":null,"RCS_SIZE":"LARGE","ARG_OF_PERICENTER":"77.3939","FILE":"3879059","GP_ID":"229393108","MEAN_MOTION_DOT":"-0.00001996","EPOCH":"2023-04-03T07:47:40.108128","NORAD_CAT_ID":"52089","PERIAPSIS":"538.600","ELEMENT_SET_NO":"999","REF_FRAME":"TEME","MEAN_MOTION_DDOT":"0.0000000000000","SITE":"AFETR","SEMIMAJOR_AXIS":"6917.889","TLE_LINE2":"2 52089  53.2162 218.6645 0001668  77.3939 282.7240 15.08837275 58910","OBJECT_TYPE":"PAYLOAD","CENTER_NAME":"EARTH","REV_AT_EPOCH":"5891","INCLINATION":"53.2162","ECCENTRICITY":"0.00016680","COUNTRY_CODE":"US","BSTAR":"-0.00010736000000","TIME_SYSTEM":"UTC"},{"NORAD_CAT_ID":"52090","EPOCH":"2023-04-03T18:39:28.850400","MEAN_MOTION_DOT":"-0.00001283","GP_ID":"229425751","FILE":"3879321","ARG_OF_PERICENTER":"107.2399","RCS_SIZE":"LARGE","DECAY_DATE":null,"APOAPSIS":"540.810","MEAN_MOTION":"15.08836093","EPHEMERIS_TYPE":"0","CLASSIFICATION_TYPE":"U","PERIOD":"95.438","OBJECT_NAME":"STARLINK-3712","TLE_LINE1":"1 52090U 22029C   23093.77741725 -.00001283  00000-0 -62510-4 0  9992","LAUNCH_DATE":"2022-03-19","MEAN_ANOMALY":"252.8759","OBJECT_ID":"2022-029C","RA_OF_ASC_NODE":"216.6382","MEAN_ELEMENT_THEORY":"SGP4","TIME_SYSTEM":"UTC","BSTAR":"-0.00006251000000","COUNTRY_CODE":"US","ECCENTRICITY":"0.00015210","INCLINATION":"53.2169","REV_AT_EPOCH":"5898","CENTER_NAME":"EARTH","OBJECT_TYPE":"PAYLOAD","TLE_LINE2":"2 52090  53.2169 216.6382 0001521 107.2399 252.8759 15.08836093 58983","SEMIMAJOR_AXIS":"6917.892","SITE":"AFETR","MEAN_MOTION_DDOT":"0.0000000000000","REF_FRAME":"TEME","ELEMENT_SET_NO":"999","PERIAPSIS":"538.705"},{"ARG_OF_PERICENTER":"40.8973","FILE":"3879321","GP_ID":"229424506","MEAN_MOTION_DOT":"0.00001459","EPOCH":"2023-04-03T17:14:40.722432","RCS_SIZE":"LARGE","NORAD_CAT_ID":"52091","LAUNCH_DATE":"2022-03-19","MEAN_ANOMALY":"319.2066","TLE_LINE1":"1 52091U 22029D   23093.71852688  .00001459  00000-0  10971-3 0  9994","OBJECT_NAME":"STARLINK-3713","MEAN_ELEMENT_THEORY":"SGP4","RA_OF_ASC_NODE":"216.8965","OBJECT_ID":"2022-029D","EPHEMERIS_TYPE":"0","MEAN_MOTION":"15.08840037","APOAPSIS":"540.180","DECAY_DATE":null,"PERIOD":"95.438","CLASSIFICATION_TYPE":"U","ECCENTRICITY":"0.00006280","REV_AT_EPOCH":"5897","INCLINATION":"53.2154","BSTAR":"0.00010971000000","TIME_SYSTEM":"UTC","COUNTRY_CODE":"US","REF_FRAME":"TEME","MEAN_MOTION_DDOT":"0.0000000000000","SITE":"AFETR","PERIAPSIS":"539.311","ELEMENT_SET_NO":"999","OBJECT_TYPE":"PAYLOAD","TLE_LINE2":"2 52091  53.2154 216.8965 0000628  40.8973 319.2066 15.08840037 58975","SEMIMAJOR_AXIS":"6917.880","CENTER_NAME":"EARTH"}];
